{
    "links": {
        "self": "http://www.neowsapp.com/rest/v1/neo/3775120?api_key=iIulBulltgU6a56xZRHN4H3l9WmuAYTsLGpBGhQ2"
    },
    "id": "3775120",
    "neo_reference_id": "3775120",
    "name": "(2017 JC6)",
    "designation": "2017 JC6",
    "nasa_jpl_url": "http://ssd.jpl.nasa.gov/sbdb.cgi?sstr=3775120",
    "absolute_magnitude_h": 27.249,
    "estimated_diameter": {
        "kilometers": {
            "estimated_diameter_min": 0.009435284,
            "estimated_diameter_max": 0.0210979364
        },
        "meters": {
            "estimated_diameter_min": 9.4352839943,
            "estimated_diameter_max": 21.0979363984
        },
        "miles": {
            "estimated_diameter_min": 0.0058628119,
            "estimated_diameter_max": 0.0131096458
        },
        "feet": {
            "estimated_diameter_min": 30.95565714,
            "estimated_diameter_max": 69.2189536532
        }
    },
    "is_potentially_hazardous_asteroid": false,
    "close_approach_data": [
        {
            "close_approach_date": "1966-02-08",
            "close_approach_date_full": "1966-Feb-08 00:01",
            "epoch_date_close_approach": -122947140000,
            "relative_velocity": {
                "kilometers_per_second": "9.4652765403",
                "kilometers_per_hour": "34074.9955450744",
                "miles_per_hour": "21172.8770929936"
            },
            "miss_distance": {
                "astronomical": "0.1527447478",
                "lunar": "59.4177068942",
                "kilometers": "22850288.924567186",
                "miles": "14198511.1440157268"
            },
            "orbiting_body": "Earth"
        },
        {
            "close_approach_date": "2017-04-29",
            "close_approach_date_full": "2017-Apr-29 16:47",
            "epoch_date_close_approach": 1493484420000,
            "relative_velocity": {
                "kilometers_per_second": "10.3384441206",
                "kilometers_per_hour": "37218.3988340052",
                "miles_per_hour": "23126.065653274"
            },
            "miss_distance": {
                "astronomical": "0.0085822956",
                "lunar": "3.3385129884",
                "kilometers": "1283893.141470372",
                "miles": "797774.2048282536"
            },
            "orbiting_body": "Moon"
        },
        {
            "close_approach_date": "2017-04-29",
            "close_approach_date_full": "2017-Apr-29 22:13",
            "epoch_date_close_approach": 1493503980000,
            "relative_velocity": {
                "kilometers_per_second": "10.5464444524",
                "kilometers_per_hour": "37967.2000287599",
                "miles_per_hour": "23591.341595648"
            },
            "miss_distance": {
                "astronomical": "0.0096891519",
                "lunar": "3.7690800891",
                "kilometers": "1449476.486346453",
                "miles": "900662.9243209314"
            },
            "orbiting_body": "Earth"
        }
    ],
    "orbital_data": {
        "orbit_id": "1",
        "orbit_determination_date": "2017-05-31 06:18:15",
        "first_observation_date": "2017-05-03",
        "last_observation_date": "2017-05-04",
        "data_arc_in_days": 1,
        "observations_used": 18,
        "orbit_uncertainty": "8",
        "minimum_orbit_intersection": ".00277074",
        "jupiter_tisserand_invariant": "4.043",
        "epoch_osculation": "2457877.5",
        "eccentricity": ".462489776651492",
        "semi_major_axis": "1.712605399950006",
        "inclination": "8.980247380381076",
        "ascending_node_longitude": "217.4268656941311",
        "orbital_period": "818.6238445254792",
        "perihelion_distance": ".9205429110349886",
        "perihelion_argument": "317.9991434030056",
        "aphelion_distance": "2.504667888865023",
        "perihelion_time": "2457838.991239553528",
        "mean_anomaly": "16.93470554692405",
        "mean_motion": ".439762416410771",
        "equinox": "J2000",
        "orbit_class": {
            "orbit_class_type": "APO",
            "orbit_class_description": "Near-Earth asteroid orbits which cross the Earth’s orbit similar to that of 1862 Apollo",
            "orbit_class_range": "a (semi-major axis) > 1.0 AU; q (perihelion) < 1.017 AU"
        }
    },
    "is_sentry_object": false
}